NORAD_CAT_ID,OBJECT_NAME,OBJECT_TYPE,EPOCH,MEAN_MOTION,ECCENTRICITY,INCLINATION,RA_OF_ASC_NODE,ARG_OF_PERICENTER,MEAN_ANOMALY,BSTAR,MEAN_MOTION_DOT,MEAN_MOTION_DDOT,TLE_LINE0,TLE_LINE1,TLE_LINE2,SEMIMAJOR_AXIS,PERIOD,APOGEE,PERIGEE,DECAYED
52628.0,STARLINK-4001,PAYLOAD,2022-10-24 00:52:03,15.08846598,0.0001796,53.2213,57.7221,45.6861,314.4278,0.00011871,1.602e-05,0.0,0 STARLINK-4001,1 52628U 22052AG  22297.03614802  .00001602  00000-0  11871-3 0  9990,2 52628  53.2213  57.7221 0001796  45.6861 314.4278 15.08846598 25075,6917.86,95.437,540.9680000000002,538.4830000000002,0.0
52628.0,STARLINK-4001,PAYLOAD,2022-10-24 10:24:23,15.08829069,0.0001721999999999,53.2199,55.9384,42.4587,317.6538,2.6955e-05,1.41e-06,0.0,0 STARLINK-4001,1 52628U 22052AG  22297.43360080  .00000141  00000-0  26955-4 0  9997,2 52628  53.2199  55.9384 0001722  42.4587 317.6538 15.08829069 25132,6917.9140000000025,95.438,540.97,538.5880000000002,0.0
52628.0,STARLINK-4001,PAYLOAD,2022-10-24 13:35:10,15.08814087,0.0002102,53.2202,55.3443,36.035,324.0783,-9.639e-05,-1.821e-05,0.0,0 STARLINK-4001,1 52628U 22052AG  22297.56609645 -.00001821  00000-0 -96390-4 0  9992,2 52628  53.2202  55.3443 0002102  36.0350 324.0783 15.08814087 24774,6917.96,95.439,541.279,538.37,0.0
52628.0,STARLINK-4001,PAYLOAD,2022-10-25 02:18:15,15.08821798,0.0001551999999999,53.2208,52.9677,64.1868,295.9285,-0.00012391,-2.258e-05,0.0,0 STARLINK-4001,1 52628U 22052AG  22298.09601646 -.00002258  00000-0 -12391-3 0  9997,2 52628  53.2208  52.9677 0001552  64.1868 295.9285 15.08821798 25238,6917.936,95.439,540.875,538.727,0.0
52628.0,STARLINK-4001,PAYLOAD,2022-10-25 10:15:11,15.08833958,0.0001979,53.2186,51.4799,53.6315,306.4859,-0.00016671,-2.94e-05,0.0,0 STARLINK-4001,1 52628U 22052AG  22298.42721374 -.00002940  00000-0 -16671-3 0  9998,2 52628  53.2186  51.4799 0001979  53.6315 306.4859 15.08833958 25286,6917.899,95.438,541.133,538.395,0.0
52628.0,STARLINK-4001,PAYLOAD,2022-10-25 16:36:43,15.08839262,0.0001846,53.22,50.2881,46.6577,313.4569,-0.00016661,-2.939e-05,0.0,0 STARLINK-4001,1 52628U 22052AG  22298.69217169 -.00002939  00000-0 -16661-3 0  9996,2 52628  53.2200  50.2881 0001846  46.6577 313.4569 15.08839262 24949,6917.8830000000025,95.438,541.025,538.471,0.0
52628.0,STARLINK-4001,PAYLOAD,2022-10-26 02:09:02,15.08838342,0.0001942,53.2188,48.5063,41.9525,318.1616,-1.826e-05,-5.79e-06,0.0,0 STARLINK-4001,1 52628U 22052AG  22299.08960843 -.00000579  00000-0 -18260-4 0  9990,2 52628  53.2188  48.5063 0001942  41.9525 318.1616 15.08838342 25386,6917.885,95.438,541.094,538.4069999999998,0.0
52628.0,STARLINK-4001,PAYLOAD,2022-10-26 11:41:20,15.088475699999998,0.0002044,53.2188,46.723,42.826,317.2891,1.9047e-05,1.5e-07,0.0,0 STARLINK-4001,1 52628U 22052AG  22299.48704248  .00000015  00000-0  19047-4 0  9996,2 52628  53.2188  46.7230 0002044  42.8260 317.2891 15.08847570 25447,6917.857,95.437,541.136,538.308,0.0
52628.0,STARLINK-4001,PAYLOAD,2022-10-26 14:52:06,15.08864804,0.0001976999999999,53.2187,46.1282,45.2198,314.8955,-0.00017185,-3.024e-05,0.0,0 STARLINK-4001,1 52628U 22052AG  22299.61951451 -.00003024  00000-0 -17185-3 0  9996,2 52628  53.2187  46.1282 0001977  45.2198 314.8955 15.08864804 25081,6917.805,95.436,541.0369999999998,538.302,0.0
52628.0,STARLINK-4001,PAYLOAD,2022-10-27 01:59:49,15.08835147,0.0001874,53.2192,44.0472,37.1864,322.9257,0.0001768,2.526e-05,0.0,0 STARLINK-4001,1 52628U 22052AG  22300.08321269  .00002526  00000-0  17680-3 0  9992,2 52628  53.2192  44.0472 0001874  37.1864 322.9257 15.08835147 25534,6917.895,95.438,541.057,538.464,0.0
52628.0,STARLINK-4001,PAYLOAD,2022-10-27 09:56:47,15.08816226,0.00018,53.2198,42.5608,30.7603,329.3494,1.2379e-05,-9.1e-07,0.0,0 STARLINK-4001,1 52628U 22052AG  22300.41443324 -.00000091  00000-0  12379-4 0  9993,2 52628  53.2198  42.5608 0001800  30.7603 329.3494 15.08816226 25589,6917.953,95.439,541.063,538.573,0.0
52628.0,STARLINK-4001,PAYLOAD,2022-10-27 13:07:34,15.08810269,0.0001873,53.219,41.9655,42.2754,317.8383,-2.1209e-05,-6.25e-06,0.0,0 STARLINK-4001,1 52628U 22052AG  22300.54692148 -.00000625  00000-0 -21209-4 0  9993,2 52628  53.2190  41.9655 0001873  42.2754 317.8383 15.08810269 25222,6917.971,95.439,541.132,538.5409999999998,0.0
52628.0,STARLINK-4001,PAYLOAD,2022-10-28 01:50:37,15.08840121,0.0002801,53.2161,39.5875,49.5162,310.6074,9.6862e-05,1.253e-05,0.0,0 STARLINK-4001,1 52628U 22052AG  22301.07682271  .00001253  00000-0  96862-4 0  9991,2 52628  53.2161  39.5875 0002801  49.5162 310.6074 15.08840121 25680,6917.88,95.438,541.683,537.807,0.0
52628.0,STARLINK-4001,PAYLOAD,2022-10-28 08:12:09,15.08853641,0.0001933,53.2182,38.397,47.1731,312.9424,0.00029982,4.489e-05,0.0,0 STARLINK-4001,1 52628U 22052AG  22301.34177437  .00004489  00000-0  29982-3 0  9996,2 52628  53.2182  38.3970 0001933  47.1731 312.9424 15.08853641 25727,6917.839,95.437,541.0409999999998,538.366,0.0
52628.0,STARLINK-4001,PAYLOAD,2022-10-28 12:58:18,15.08858596,0.0002223,53.2189,37.5081,33.9386,326.1748,0.00035442,5.36e-05,0.0,0 STARLINK-4001,1 52628U 22052AG  22301.54049245  .00005360  00000-0  35442-3 0  9990,2 52628  53.2189  37.5081 0002223  33.9386 326.1748 15.08858596 25371,6917.824000000001,95.436,541.226,538.151,0.0
52628.0,STARLINK-4001,PAYLOAD,2022-10-29 00:06:00,15.08853397,0.0001966999999999,53.2201,35.4248,43.4116,316.703,0.00029755,4.452e-05,0.0,0 STARLINK-4001,1 52628U 22052AG  22302.00417188  .00004452  00000-0  29755-3 0  9998,2 52628  53.2201  35.4248 0001967  43.4116 316.7030 15.08853397 25822,6917.839,95.437,541.065,538.344,0.0
52628.0,STARLINK-4001,PAYLOAD,2022-10-29 09:38:18,15.08860426,0.0001979,53.2184,33.6403,42.8756,317.2390000000001,0.00027876,4.154e-05,0.0,0 STARLINK-4001,1 52628U 22052AG  22302.40160523  .00004154  00000-0  27876-3 0  9991,2 52628  53.2184  33.6403 0001979  42.8756 317.2390 15.08860426 25502,6917.818,95.436,541.052,538.314,0.0
52628.0,STARLINK-4001,PAYLOAD,2022-10-29 15:59:51,15.08852573,0.0001875999999999,53.2185,32.4503,43.1185,316.9954,0.00040635,6.187e-05,0.0,0 STARLINK-4001,1 52628U 22052AG  22302.66656728  .00006187  00000-0  40635-3 0  9992,2 52628  53.2185  32.4503 0001876  43.1185 316.9954 15.08852573 25547,6917.842,95.437,541.005,538.409,0.0
52628.0,STARLINK-4001,PAYLOAD,2022-10-30 11:04:28,15.08840074,0.0001794,53.219,28.8809,38.9894,321.1227,-0.00023567,-4.037e-05,0.0,0 STARLINK-4001,1 52628U 22052AG  22303.46144531 -.00004037  00000-0 -23567-3 0  9994,2 52628  53.2190  28.8809 0001794  38.9894 321.1227 15.08840074 25666,6917.88,95.438,540.986,538.504,0.0
52628.0,STARLINK-4001,PAYLOAD,2022-10-30 15:50:38,15.08843933,0.0001974,53.2186,27.9886,41.9287,318.1856,-0.00021484,-3.706e-05,0.0,0 STARLINK-4001,1 52628U 22052AG  22303.66016326 -.00003706  00000-0 -21484-3 0  9994,2 52628  53.2186  27.9886 0001974  41.9287 318.1856 15.08843933 25690,6917.868,95.437,541.099,538.368,0.0
52628.0,STARLINK-4001,PAYLOAD,2022-10-31 09:19:52,15.08840975,0.0001849,53.2185,24.72,40.9372,319.1759,-8.0739e-05,-1.573e-05,0.0,0 STARLINK-4001,1 52628U 22052AG  22304.38880189 -.00001573  00000-0 -80739-4 0  9999,2 52628  53.2185  24.7200 0001849  40.9372 319.1759 15.08840975 25808,6917.877,95.437,541.0219999999998,538.4630000000002,0.0
52628.0,STARLINK-4001,PAYLOAD,2022-10-31 12:30:38,15.08836351,0.0001826,53.2182,24.1236,42.5137,317.5997,-0.00013701,-2.468e-05,0.0,0 STARLINK-4001,1 52628U 22052AG  22304.52128419 -.00002468  00000-0 -13701-3 0  9994,2 52628  53.2182  24.1236 0001826  42.5137 317.5997 15.08836351 25821,6917.892,95.438,541.02,538.493,0.0
52628.0,STARLINK-4001,PAYLOAD,2022-11-01 09:10:40,15.08833467,0.000167,53.2184,20.2583,48.9174,311.1962,1.5532e-05,-4.1e-07,0.0,0 STARLINK-4001,1 52628U 22052AG  22305.38240943 -.00000041  00000-0  15532-4 0  9995,2 52628  53.2184  20.2583 0001670  48.9174 311.1962 15.08833467 25954,6917.9,95.438,540.9209999999998,538.61,0.0
52628.0,STARLINK-4001,PAYLOAD,2022-11-02 02:39:54,15.08844226,0.0001889,53.2182,16.9873,40.3488,319.7644,0.00022782,3.34e-05,0.0,0 STARLINK-4001,1 52628U 22052AG  22306.11104677  .00003340  00000-0  22782-3 0  9998,2 52628  53.2182  16.9873 0001889  40.3488 319.7644 15.08844226 26443,6917.8669999999975,95.437,541.039,538.4259999999998,0.0
52628.0,STARLINK-4001,PAYLOAD,2022-11-02 10:36:50,15.08835992,0.0002078,53.2184,15.5016,36.0143,324.0989,9.2888e-05,1.19e-05,0.0,0 STARLINK-4001,1 52628U 22052AG  22306.44225090  .00001190  00000-0  92888-4 0  9993,2 52628  53.2184  15.5016 0002078  36.0143 324.0989 15.08835992 26115,6917.893,95.438,541.195,538.32,0.0
52628.0,STARLINK-4001,PAYLOAD,2022-11-03 10:27:37,15.08852085,0.0002006,53.2178,11.0407,41.2502,318.8642,0.00088407,0.00013815,0.0,0 STARLINK-4001,1 52628U 22052AG  22307.43585114  .00013815  00000-0  88407-3 0  9997,2 52628  53.2178  11.0407 0002006  41.2502 318.8642 15.08852085 26266,6917.843000000003,95.437,541.096,538.321,0.0
52628.0,STARLINK-4001,PAYLOAD,2022-11-04 02:21:28,15.08841964,0.000228,53.2176,8.0681,35.2572,324.8571,-0.0003689,-6.155e-05,0.0,0 STARLINK-4001,1 52628U 22052AG  22308.09824488 -.00006155  00000-0 -36890-3 0  9990,2 52628  53.2176   8.0681 0002280  35.2572 324.8571 15.08841964 26743,6917.874,95.437,541.317,538.1619999999998,0.0
52628.0,STARLINK-4001,PAYLOAD,2022-11-04 08:43:00,15.08846208,0.0001976,53.2183,6.8782,41.2316,318.8825,0.00013676,1.889e-05,0.0,0 STARLINK-4001,1 52628U 22052AG  22308.36320491  .00001889  00000-0  13676-3 0  9999,2 52628  53.2183   6.8782 0001976  41.2316 318.8825 15.08846208 26407,6917.861,95.437,541.0930000000002,538.359,0.0
52628.0,STARLINK-4001,PAYLOAD,2022-11-04 23:01:29,15.08839155,0.0002096,53.2182,4.2025,41.0479,319.067,-7.4972e-05,-1.481e-05,0.0,0 STARLINK-4001,1 52628U 22052AG  22308.95936639 -.00001481  00000-0 -74972-4 0  9998,2 52628  53.2182   4.2025 0002096  41.0479 319.0670 15.08839155 26875,6917.8830000000025,95.438,541.198,538.298,0.0
